{
    "links": {
        "self": "http://www.neowsapp.com/rest/v1/neo/3668978?api_key=iIulBulltgU6a56xZRHN4H3l9WmuAYTsLGpBGhQ2"
    },
    "id": "3668978",
    "neo_reference_id": "3668978",
    "name": "(2014 HX2)",
    "designation": "2014 HX2",
    "nasa_jpl_url": "http://ssd.jpl.nasa.gov/sbdb.cgi?sstr=3668978",
    "absolute_magnitude_h": 27.2,
    "estimated_diameter": {
        "kilometers": {
            "estimated_diameter_min": 0.0096506147,
            "estimated_diameter_max": 0.0215794305
        },
        "meters": {
            "estimated_diameter_min": 9.6506146958,
            "estimated_diameter_max": 21.5794304844
        },
        "miles": {
            "estimated_diameter_min": 0.0059966121,
            "estimated_diameter_max": 0.0134088323
        },
        "feet": {
            "estimated_diameter_min": 31.6621227185,
            "estimated_diameter_max": 70.7986587106
        }
    },
    "is_potentially_hazardous_asteroid": false,
    "close_approach_data": [
        {
            "close_approach_date": "2009-05-28",
            "close_approach_date_full": "2009-May-28 04:10",
            "epoch_date_close_approach": 1243483800000,
            "relative_velocity": {
                "kilometers_per_second": "21.5615348143",
                "kilometers_per_hour": "77621.5253313698",
                "miles_per_hour": "48230.9972260392"
            },
            "miss_distance": {
                "astronomical": "0.4757994055",
                "lunar": "185.0859687395",
                "kilometers": "71178577.610066285",
                "miles": "44228317.232573333"
            },
            "orbiting_body": "Earth"
        },
        {
            "close_approach_date": "2014-04-19",
            "close_approach_date_full": "2014-Apr-19 05:58",
            "epoch_date_close_approach": 1397887080000,
            "relative_velocity": {
                "kilometers_per_second": "7.6897939372",
                "kilometers_per_hour": "27683.2581738717",
                "miles_per_hour": "17201.3000580926"
            },
            "miss_distance": {
                "astronomical": "0.020969552",
                "lunar": "8.157155728",
                "kilometers": "3137000.31405424",
                "miles": "1949241.607618912"
            },
            "orbiting_body": "Earth"
        }
    ],
    "orbital_data": {
        "orbit_id": "7",
        "orbit_determination_date": "2017-04-06 08:41:32",
        "first_observation_date": "2014-04-23",
        "last_observation_date": "2014-04-29",
        "data_arc_in_days": 6,
        "observations_used": 26,
        "orbit_uncertainty": "8",
        "minimum_orbit_intersection": ".00342686",
        "jupiter_tisserand_invariant": "3.893",
        "epoch_osculation": "2456773.5",
        "eccentricity": ".4646002392958195",
        "semi_major_axis": "1.830044952782334",
        "inclination": "1.086200890916316",
        "ascending_node_longitude": "31.72382289408949",
        "orbital_period": "904.255301252385",
        "perihelion_distance": ".9798056297975549",
        "perihelion_argument": "147.8532202056488",
        "aphelion_distance": "2.680284275767113",
        "perihelion_time": "2456742.970520090016",
        "mean_anomaly": "12.15432494824453",
        "mean_motion": ".3981176549381611",
        "equinox": "J2000",
        "orbit_class": {
            "orbit_class_type": "APO",
            "orbit_class_description": "Near-Earth asteroid orbits which cross the Earth’s orbit similar to that of 1862 Apollo",
            "orbit_class_range": "a (semi-major axis) > 1.0 AU; q (perihelion) < 1.017 AU"
        }
    },
    "is_sentry_object": false
}